[{"OBJECT_NAME":"STARLINK-4061","OBJECT_ID":"2022-086F","EPOCH":"2025-08-09T06:52:31.955808","MEAN_MOTION":15.08835209,"ECCENTRICITY":0.0001308,"INCLINATION":53.2169,"RA_OF_ASC_NODE":72.8184,"ARG_OF_PERICENTER":89.1264,"MEAN_ANOMALY":270.9878,"EPHEMERIS_TYPE":0,"CLASSIFICATION_TYPE":"U","NORAD_CAT_ID":53247,"ELEMENT_SET_NO":999,"REV_AT_EPOCH":16924,"BSTAR":1.0976e-5,"MEAN_MOTION_DOT":-1.13e-6,"MEAN_MOTION_DDOT":0},{"OBJECT_NAME":"STARLINK-4135","OBJECT_ID":"2022-086G","EPOCH":"2025-08-09T20:55:05.041632","MEAN_MOTION":15.08841918,"ECCENTRICITY":0.0001315,"INCLINATION":53.2173,"RA_OF_ASC_NODE":70.1136,"ARG_OF_PERICENTER":89.825,"MEAN_ANOMALY":270.2893,"EPHEMERIS_TYPE":0,"CLASSIFICATION_TYPE":"U","NORAD_CAT_ID":53248,"ELEMENT_SET_NO":999,"REV_AT_EPOCH":16883,"BSTAR":5.4073e-5,"MEAN_MOTION_DOT":5.73e-6,"MEAN_MOTION_DDOT":0},{"OBJECT_NAME":"STARLINK-4128","OBJECT_ID":"2022-086H","EPOCH":"2025-08-09T20:59:45.705120","MEAN_MOTION":15.08842825,"ECCENTRICITY":0.0001313,"INCLINATION":53.2175,"RA_OF_ASC_NODE":65.0051,"ARG_OF_PERICENTER":90.4342,"MEAN_ANOMALY":269.6801,"EPHEMERIS_TYPE":0,"CLASSIFICATION_TYPE":"U","NORAD_CAT_ID":53249,"ELEMENT_SET_NO":999,"REV_AT_EPOCH":16890,"BSTAR":5.0023e-5,"MEAN_MOTION_DOT":5.08e-6,"MEAN_MOTION_DDOT":0},{"OBJECT_NAME":"STARLINK-4059","OBJECT_ID":"2022-086J","EPOCH":"2025-08-09T21:03:40.767552","MEAN_MOTION":15.08841635,"ECCENTRICITY":0.0001337,"INCLINATION":53.2178,"RA_OF_ASC_NODE":64.985,"ARG_OF_PERICENTER":91.2932,"MEAN_ANOMALY":268.8213,"EPHEMERIS_TYPE":0,"CLASSIFICATION_TYPE":"U","NORAD_CAT_ID":53250,"ELEMENT_SET_NO":999,"REV_AT_EPOCH":16890,"BSTAR":6.3224e-5,"MEAN_MOTION_DOT":7.18e-6,"MEAN_MOTION_DDOT":0},{"OBJECT_NAME":"STARLINK-4129","OBJECT_ID":"2022-086K","EPOCH":"2025-08-09T06:29:18.964032","MEAN_MOTION":15.088385,"ECCENTRICITY":0.000124,"INCLINATION":53.2176,"RA_OF_ASC_NODE":67.708,"ARG_OF_PERICENTER":87.8865,"MEAN_ANOMALY":272.2269,"EPHEMERIS_TYPE":0,"CLASSIFICATION_TYPE":"U","NORAD_CAT_ID":53251,"ELEMENT_SET_NO":999,"REV_AT_EPOCH":16899,"BSTAR":4.7187e-5,"MEAN_MOTION_DOT":4.63e-6,"MEAN_MOTION_DDOT":0},{"OBJECT_NAME":"STARLINK-4132","OBJECT_ID":"2022-086L","EPOCH":"2025-08-09T06:34:36.311232","MEAN_MOTION":15.08838682,"ECCENTRICITY":0.0001318,"INCLINATION":53.2181,"RA_OF_ASC_NODE":67.6434,"ARG_OF_PERICENTER":89.1565,"MEAN_ANOMALY":270.9578,"EPHEMERIS_TYPE":0,"CLASSIFICATION_TYPE":"U","NORAD_CAT_ID":53252,"ELEMENT_SET_NO":999,"REV_AT_EPOCH":16901,"BSTAR":2.7695e-5,"MEAN_MOTION_DOT":1.53e-6,"MEAN_MOTION_DDOT":0},{"OBJECT_NAME":"STARLINK-4133","OBJECT_ID":"2022-086M","EPOCH":"2025-08-09T00:02:27.991968","MEAN_MOTION":15.08844002,"ECCENTRICITY":0.0001279,"INCLINATION":53.2171,"RA_OF_ASC_NODE":68.9137,"ARG_OF_PERICENTER":90.3741,"MEAN_ANOMALY":269.7397,"EPHEMERIS_TYPE":0,"CLASSIFICATION_TYPE":"U","NORAD_CAT_ID":53253,"ELEMENT_SET_NO":999,"REV_AT_EPOCH":16895,"BSTAR":1.6016e-5,"MEAN_MOTION_DOT":-3.3e-7,"MEAN_MOTION_DDOT":0},{"OBJECT_NAME":"STARLINK-4134","OBJECT_ID":"2022-086N","EPOCH":"2025-08-09T06:35:59.669088","MEAN_MOTION":15.08836909,"ECCENTRICITY":0.0001598,"INCLINATION":53.218,"RA_OF_ASC_NODE":67.6983,"ARG_OF_PERICENTER":89.8491,"MEAN_ANOMALY":270.2684,"EPHEMERIS_TYPE":0,"CLASSIFICATION_TYPE":"U","NORAD_CAT_ID":53254,"ELEMENT_SET_NO":999,"REV_AT_EPOCH":16901,"BSTAR":2.3216e-5,"MEAN_MOTION_DOT":8.1e-7,"MEAN_MOTION_DDOT":0},{"OBJECT_NAME":"STARLINK-4142","OBJECT_ID":"2022-086P","EPOCH":"2025-08-08T23:51:52.345440","MEAN_MOTION":15.08840631,"ECCENTRICITY":0.0001373,"INCLINATION":53.2177,"RA_OF_ASC_NODE":68.9466,"ARG_OF_PERICENTER":88.9794,"MEAN_ANOMALY":271.1355,"EPHEMERIS_TYPE":0,"CLASSIFICATION_TYPE":"U","NORAD_CAT_ID":53255,"ELEMENT_SET_NO":999,"REV_AT_EPOCH":16895,"BSTAR":7.191e-6,"MEAN_MOTION_DOT":-1.73e-6,"MEAN_MOTION_DDOT":0},{"OBJECT_NAME":"STARLINK-4147","OBJECT_ID":"2022-086Q","EPOCH":"2025-08-09T20:37:10.427808","MEAN_MOTION":15.0884491,"ECCENTRICITY":0.0001335,"INCLINATION":53.2176,"RA_OF_ASC_NODE":65.0635,"ARG_OF_PERICENTER":91.0078,"MEAN_ANOMALY":269.1067,"EPHEMERIS_TYPE":0,"CLASSIFICATION_TYPE":"U","NORAD_CAT_ID":53256,"ELEMENT_SET_NO":999,"REV_AT_EPOCH":16890,"BSTAR":7.3894e-5,"MEAN_MOTION_DOT":8.88e-6,"MEAN_MOTION_DDOT":0},{"OBJECT_NAME":"STARLINK-4144","OBJECT_ID":"2022-086R","EPOCH":"2025-08-09T20:15:59.668704","MEAN_MOTION":15.0883607,"ECCENTRICITY":0.0001483,"INCLINATION":53.2181,"RA_OF_ASC_NODE":65.1312,"ARG_OF_PERICENTER":93.8075,"MEAN_ANOMALY":266.3086,"EPHEMERIS_TYPE":0,"CLASSIFICATION_TYPE":"U","NORAD_CAT_ID":53257,"ELEMENT_SET_NO":999,"REV_AT_EPOCH":16890,"BSTAR":-2.2426e-5,"MEAN_MOTION_DOT":-6.45e-6,"MEAN_MOTION_DDOT":0},{"OBJECT_NAME":"STARLINK-4127","OBJECT_ID":"2022-086S","EPOCH":"2025-08-09T20:26:35.526048","MEAN_MOTION":15.08835913,"ECCENTRICITY":0.0001389,"INCLINATION":53.2171,"RA_OF_ASC_NODE":65.0958,"ARG_OF_PERICENTER":92.7909,"MEAN_ANOMALY":267.3242,"EPHEMERIS_TYPE":0,"CLASSIFICATION_TYPE":"U","NORAD_CAT_ID":53258,"ELEMENT_SET_NO":999,"REV_AT_EPOCH":16890,"BSTAR":-1.4137e-5,"MEAN_MOTION_DOT":-5.13e-6,"MEAN_MOTION_DDOT":0},{"OBJECT_NAME":"STARLINK-4140","OBJECT_ID":"2022-086T","EPOCH":"2025-08-09T20:58:19.835616","MEAN_MOTION":15.08846991,"ECCENTRICITY":0.0001277,"INCLINATION":53.2178,"RA_OF_ASC_NODE":64.6442,"ARG_OF_PERICENTER":96.5824,"MEAN_ANOMALY":263.5314,"EPHEMERIS_TYPE":0,"CLASSIFICATION_TYPE":"U","NORAD_CAT_ID":53259,"ELEMENT_SET_NO":999,"REV_AT_EPOCH":16891,"BSTAR":0.00019032,"MEAN_MOTION_DOT":2.743e-5,"MEAN_MOTION_DDOT":0},{"OBJECT_NAME":"STARLINK-4062","OBJECT_ID":"2022-086V","EPOCH":"2025-08-09T07:17:00.213216","MEAN_MOTION":15.08843061,"ECCENTRICITY":0.0001348,"INCLINATION":53.2173,"RA_OF_ASC_NODE":67.5607,"ARG_OF_PERICENTER":87.4233,"MEAN_ANOMALY":272.6913,"EPHEMERIS_TYPE":0,"CLASSIFICATION_TYPE":"U","NORAD_CAT_ID":53261,"ELEMENT_SET_NO":999,"REV_AT_EPOCH":16900,"BSTAR":8.0711e-5,"MEAN_MOTION_DOT":9.97e-6,"MEAN_MOTION_DDOT":0},{"OBJECT_NAME":"STARLINK-4085","OBJECT_ID":"2022-086W","EPOCH":"2025-08-09T07:27:36.105984","MEAN_MOTION":15.08841442,"ECCENTRICITY":0.0001245,"INCLINATION":53.2175,"RA_OF_ASC_NODE":67.5255,"ARG_OF_PERICENTER":89.0359,"MEAN_ANOMALY":271.0776,"EPHEMERIS_TYPE":0,"CLASSIFICATION_TYPE":"U","NORAD_CAT_ID":53262,"ELEMENT_SET_NO":999,"REV_AT_EPOCH":16900,"BSTAR":3.298e-5,"MEAN_MOTION_DOT":2.37e-6,"MEAN_MOTION_DDOT":0},{"OBJECT_NAME":"STARLINK-4130","OBJECT_ID":"2022-086X","EPOCH":"2025-08-09T07:11:42.434880","MEAN_MOTION":15.08841779,"ECCENTRICITY":0.0001358,"INCLINATION":53.2173,"RA_OF_ASC_NODE":67.5774,"ARG_OF_PERICENTER":86.5074,"MEAN_ANOMALY":273.6073,"EPHEMERIS_TYPE":0,"CLASSIFICATION_TYPE":"U","NORAD_CAT_ID":53263,"ELEMENT_SET_NO":999,"REV_AT_EPOCH":16900,"BSTAR":3.9484e-5,"MEAN_MOTION_DOT":3.41e-6,"MEAN_MOTION_DDOT":0},{"OBJECT_NAME":"STARLINK-3950","OBJECT_ID":"2022-086Y","EPOCH":"2025-08-09T20:05:23.391456","MEAN_MOTION":15.0883995,"ECCENTRICITY":0.000134,"INCLINATION":53.2175,"RA_OF_ASC_NODE":65.164,"ARG_OF_PERICENTER":88.7827,"MEAN_ANOMALY":271.3319,"EPHEMERIS_TYPE":0,"CLASSIFICATION_TYPE":"U","NORAD_CAT_ID":53264,"ELEMENT_SET_NO":999,"REV_AT_EPOCH":16890,"BSTAR":8.6583e-6,"MEAN_MOTION_DOT":-1.5e-6,"MEAN_MOTION_DDOT":0}]
