STARLINK-4061           
1 53247U 22086F   25221.28648097 -.00000113  00000+0  10976-4 0  9997
2 53247  53.2169  72.8184 0001308  89.1264 270.9878 15.08835209169245
STARLINK-4135           
1 53248U 22086G   25221.87158613  .00000573  00000+0  54073-4 0  9998
2 53248  53.2173  70.1136 0001315  89.8250 270.2893 15.08841918168837
STARLINK-4128           
1 53249U 22086H   25221.87483455  .00000508  00000+0  50023-4 0  9993
2 53249  53.2175  65.0051 0001313  90.4342 269.6801 15.08842825168904
STARLINK-4059           
1 53250U 22086J   25221.87755518  .00000718  00000+0  63224-4 0  9997
2 53250  53.2178  64.9850 0001337  91.2932 268.8213 15.08841635168900
STARLINK-4129           
1 53251U 22086K   25221.27035838  .00000463  00000+0  47187-4 0  9995
2 53251  53.2176  67.7080 0001240  87.8865 272.2269 15.08838500168990
STARLINK-4132           
1 53252U 22086L   25221.27403138  .00000153  00000+0  27695-4 0  9996
2 53252  53.2181  67.6434 0001318  89.1565 270.9578 15.08838682169010
STARLINK-4133           
1 53253U 22086M   25221.00171287 -.00000033  00000+0  16016-4 0  9998
2 53253  53.2171  68.9137 0001279  90.3741 269.7397 15.08844002168950
STARLINK-4134           
1 53254U 22086N   25221.27499617  .00000081  00000+0  23216-4 0  9990
2 53254  53.2180  67.6983 0001598  89.8491 270.2684 15.08836909169016
STARLINK-4142           
1 53255U 22086P   25220.99435585 -.00000173  00000+0  71910-5 0  9991
2 53255  53.2177  68.9466 0001373  88.9794 271.1355 15.08840631168954
STARLINK-4147           
1 53256U 22086Q   25221.85914847  .00000888  00000+0  73894-4 0  9995
2 53256  53.2176  65.0635 0001335  91.0078 269.1067 15.08844910168904
STARLINK-4144           
1 53257U 22086R   25221.84444061 -.00000645  00000+0 -22426-4 0  9999
2 53257  53.2181  65.1312 0001483  93.8075 266.3086 15.08836070168903
STARLINK-4127           
1 53258U 22086S   25221.85180007 -.00000513  00000+0 -14137-4 0  9992
2 53258  53.2171  65.0958 0001389  92.7909 267.3242 15.08835913168907
STARLINK-4140           
1 53259U 22086T   25221.87384069  .00002743  00000+0  19032-3 0  9992
2 53259  53.2178  64.6442 0001277  96.5824 263.5314 15.08846991168919
STARLINK-4062           
1 53261U 22086V   25221.30347469  .00000997  00000+0  80711-4 0  9998
2 53261  53.2173  67.5607 0001348  87.4233 272.6913 15.08843061169006
STARLINK-4085           
1 53262U 22086W   25221.31083456  .00000237  00000+0  32980-4 0  9995
2 53262  53.2175  67.5255 0001245  89.0359 271.0776 15.08841442169002
STARLINK-4130           
1 53263U 22086X   25221.29979670  .00000341  00000+0  39484-4 0  9997
2 53263  53.2173  67.5774 0001358  86.5074 273.6073 15.08841779169009
STARLINK-3950           
1 53264U 22086Y   25221.83707629 -.00000150  00000+0  86583-5 0  9993
2 53264  53.2175  65.1640 0001340  88.7827 271.3319 15.08839950168903
